[{"OBJECT_NAME":"STARLINK-36356","OBJECT_ID":"2026-054L","EPOCH":"2026-03-30T17:41:00.354624","MEAN_MOTION":15.80312,"ECCENTRICITY":5.033e-5,"INCLINATION":53.1596,"RA_OF_ASC_NODE":207.1073,"ARG_OF_PERICENTER":49.8547,"MEAN_ANOMALY":310.252,"EPHEMERIS_TYPE":0,"CLASSIFICATION_TYPE":"U","NORAD_CAT_ID":68242,"ELEMENT_SET_NO":999,"REV_AT_EPOCH":210,"BSTAR":-0.0025692398,"MEAN_MOTION_DOT":-0.00468872,"MEAN_MOTION_DDOT":0},{"OBJECT_NAME":"STARLINK-36345","OBJECT_ID":"2026-054M","EPOCH":"2026-04-01T03:21:45.635328","MEAN_MOTION":15.75348172,"ECCENTRICITY":4.9e-5,"INCLINATION":53.1607,"RA_OF_ASC_NODE":200.2203,"ARG_OF_PERICENTER":152.7362,"MEAN_ANOMALY":207.3684,"EPHEMERIS_TYPE":0,"CLASSIFICATION_TYPE":"U","NORAD_CAT_ID":68243,"ELEMENT_SET_NO":999,"REV_AT_EPOCH":232,"BSTAR":0.0017904,"MEAN_MOTION_DOT":0.00284612,"MEAN_MOTION_DDOT":0},{"OBJECT_NAME":"STARLINK-36310","OBJECT_ID":"2026-054N","EPOCH":"2026-03-31T14:52:09.658272","MEAN_MOTION":15.80976424,"ECCENTRICITY":8.098e-5,"INCLINATION":53.1596,"RA_OF_ASC_NODE":202.6565,"ARG_OF_PERICENTER":58.4255,"MEAN_ANOMALY":301.6846,"EPHEMERIS_TYPE":0,"CLASSIFICATION_TYPE":"U","NORAD_CAT_ID":68244,"ELEMENT_SET_NO":999,"REV_AT_EPOCH":224,"BSTAR":0.0018087809,"MEAN_MOTION_DOT":0.00373987,"MEAN_MOTION_DDOT":0},{"OBJECT_NAME":"STARLINK-36247","OBJECT_ID":"2026-054P","EPOCH":"2026-03-31T14:53:14.715744","MEAN_MOTION":15.80944479,"ECCENTRICITY":0.00013904,"INCLINATION":53.1598,"RA_OF_ASC_NODE":202.6622,"ARG_OF_PERICENTER":40.7381,"MEAN_ANOMALY":319.3746,"EPHEMERIS_TYPE":0,"CLASSIFICATION_TYPE":"U","NORAD_CAT_ID":68245,"ELEMENT_SET_NO":999,"REV_AT_EPOCH":224,"BSTAR":0.0016379414,"MEAN_MOTION_DOT":0.00336605,"MEAN_MOTION_DDOT":0},{"OBJECT_NAME":"STARLINK-37043","OBJECT_ID":"2026-054Q","EPOCH":"2026-04-01T02:59:21.516576","MEAN_MOTION":15.81157238,"ECCENTRICITY":8.6e-5,"INCLINATION":53.1592,"RA_OF_ASC_NODE":200.1169,"ARG_OF_PERICENTER":152.1555,"MEAN_ANOMALY":207.9514,"EPHEMERIS_TYPE":0,"CLASSIFICATION_TYPE":"U","NORAD_CAT_ID":68246,"ELEMENT_SET_NO":999,"REV_AT_EPOCH":232,"BSTAR":0.0029212,"MEAN_MOTION_DOT":0.00628018,"MEAN_MOTION_DDOT":0},{"OBJECT_NAME":"STARLINK-37044","OBJECT_ID":"2026-054R","EPOCH":"2026-04-01T04:29:19.033440","MEAN_MOTION":15.80837723,"ECCENTRICITY":0.0001559,"INCLINATION":53.1594,"RA_OF_ASC_NODE":199.7946,"ARG_OF_PERICENTER":22.1766,"MEAN_ANOMALY":337.9323,"EPHEMERIS_TYPE":0,"CLASSIFICATION_TYPE":"U","NORAD_CAT_ID":68247,"ELEMENT_SET_NO":999,"REV_AT_EPOCH":233,"BSTAR":0.0015906,"MEAN_MOTION_DOT":0.00324802,"MEAN_MOTION_DDOT":0},{"OBJECT_NAME":"STARLINK-36997","OBJECT_ID":"2026-054S","EPOCH":"2026-04-01T04:00:03.999744","MEAN_MOTION":15.75212339,"ECCENTRICITY":8.65e-5,"INCLINATION":53.16,"RA_OF_ASC_NODE":200.0346,"ARG_OF_PERICENTER":68.4721,"MEAN_ANOMALY":108.335,"EPHEMERIS_TYPE":0,"CLASSIFICATION_TYPE":"U","NORAD_CAT_ID":68248,"ELEMENT_SET_NO":999,"REV_AT_EPOCH":352,"BSTAR":0.00016407,"MEAN_MOTION_DOT":0.00024555,"MEAN_MOTION_DDOT":0},{"OBJECT_NAME":"STARLINK-37141","OBJECT_ID":"2026-054T","EPOCH":"2026-04-01T04:27:54.599904","MEAN_MOTION":15.78577457,"ECCENTRICITY":0.0004417,"INCLINATION":53.1593,"RA_OF_ASC_NODE":199.7883,"ARG_OF_PERICENTER":340.2467,"MEAN_ANOMALY":19.8383,"EPHEMERIS_TYPE":0,"CLASSIFICATION_TYPE":"U","NORAD_CAT_ID":68249,"ELEMENT_SET_NO":999,"REV_AT_EPOCH":233,"BSTAR":-0.0049419,"MEAN_MOTION_DOT":-0.00802451,"MEAN_MOTION_DDOT":0},{"OBJECT_NAME":"STARLINK-37087","OBJECT_ID":"2026-054U","EPOCH":"2026-04-01T04:00:03.999744","MEAN_MOTION":15.75194883,"ECCENTRICITY":8.05e-5,"INCLINATION":53.1592,"RA_OF_ASC_NODE":199.933,"ARG_OF_PERICENTER":82.8542,"MEAN_ANOMALY":143.5935,"EPHEMERIS_TYPE":0,"CLASSIFICATION_TYPE":"U","NORAD_CAT_ID":68250,"ELEMENT_SET_NO":999,"REV_AT_EPOCH":352,"BSTAR":0.00043471,"MEAN_MOTION_DOT":0.00066392,"MEAN_MOTION_DDOT":0},{"OBJECT_NAME":"STARLINK-36274","OBJECT_ID":"2026-054V","EPOCH":"2026-04-01T04:00:03.999744","MEAN_MOTION":15.75158518,"ECCENTRICITY":0.0001223,"INCLINATION":53.1596,"RA_OF_ASC_NODE":199.9855,"ARG_OF_PERICENTER":98.8949,"MEAN_ANOMALY":101.8078,"EPHEMERIS_TYPE":0,"CLASSIFICATION_TYPE":"U","NORAD_CAT_ID":68251,"ELEMENT_SET_NO":999,"REV_AT_EPOCH":356,"BSTAR":0.00096226,"MEAN_MOTION_DOT":0.00148962,"MEAN_MOTION_DDOT":0},{"OBJECT_NAME":"STARLINK-37085","OBJECT_ID":"2026-054W","EPOCH":"2026-04-01T04:23:54.793248","MEAN_MOTION":15.80880199,"ECCENTRICITY":0.0001441,"INCLINATION":53.1591,"RA_OF_ASC_NODE":199.769,"ARG_OF_PERICENTER":17.3195,"MEAN_ANOMALY":342.7877,"EPHEMERIS_TYPE":0,"CLASSIFICATION_TYPE":"U","NORAD_CAT_ID":68252,"ELEMENT_SET_NO":999,"REV_AT_EPOCH":233,"BSTAR":0.00098487,"MEAN_MOTION_DOT":0.00198275,"MEAN_MOTION_DDOT":0},{"OBJECT_NAME":"STARLINK-37086","OBJECT_ID":"2026-054X","EPOCH":"2026-04-01T04:22:50.020032","MEAN_MOTION":15.80891277,"ECCENTRICITY":5.67e-5,"INCLINATION":53.159,"RA_OF_ASC_NODE":199.7642,"ARG_OF_PERICENTER":100.7044,"MEAN_ANOMALY":259.4043,"EPHEMERIS_TYPE":0,"CLASSIFICATION_TYPE":"U","NORAD_CAT_ID":68253,"ELEMENT_SET_NO":999,"REV_AT_EPOCH":233,"BSTAR":0.00069851,"MEAN_MOTION_DOT":0.00139531,"MEAN_MOTION_DDOT":0},{"OBJECT_NAME":"STARLINK-37084","OBJECT_ID":"2026-054Y","EPOCH":"2026-04-01T04:20:40.493472","MEAN_MOTION":15.80881243,"ECCENTRICITY":0.0001776,"INCLINATION":53.1589,"RA_OF_ASC_NODE":199.7545,"ARG_OF_PERICENTER":29.7915,"MEAN_ANOMALY":330.3208,"EPHEMERIS_TYPE":0,"CLASSIFICATION_TYPE":"U","NORAD_CAT_ID":68254,"ELEMENT_SET_NO":999,"REV_AT_EPOCH":233,"BSTAR":0.0011682,"MEAN_MOTION_DOT":0.00236382,"MEAN_MOTION_DDOT":0},{"OBJECT_NAME":"STARLINK-37075","OBJECT_ID":"2026-054Z","EPOCH":"2026-04-01T04:21:45.067104","MEAN_MOTION":15.80872111,"ECCENTRICITY":0.0001082,"INCLINATION":53.1591,"RA_OF_ASC_NODE":199.7597,"ARG_OF_PERICENTER":12.4565,"MEAN_ANOMALY":347.6484,"EPHEMERIS_TYPE":0,"CLASSIFICATION_TYPE":"U","NORAD_CAT_ID":68255,"ELEMENT_SET_NO":999,"REV_AT_EPOCH":233,"BSTAR":0.0010476,"MEAN_MOTION_DOT":0.00211195,"MEAN_MOTION_DDOT":0},{"OBJECT_NAME":"STARLINK-36333","OBJECT_ID":"2026-054AA","EPOCH":"2026-04-01T04:19:35.615712","MEAN_MOTION":15.8086396,"ECCENTRICITY":8.98e-5,"INCLINATION":53.159,"RA_OF_ASC_NODE":199.7499,"ARG_OF_PERICENTER":27.4802,"MEAN_ANOMALY":332.6268,"EPHEMERIS_TYPE":0,"CLASSIFICATION_TYPE":"U","NORAD_CAT_ID":68256,"ELEMENT_SET_NO":999,"REV_AT_EPOCH":233,"BSTAR":0.00098715,"MEAN_MOTION_DOT":0.00198595,"MEAN_MOTION_DDOT":0},{"OBJECT_NAME":"STARLINK-36745","OBJECT_ID":"2026-054AB","EPOCH":"2026-04-01T04:00:03.999744","MEAN_MOTION":15.75228738,"ECCENTRICITY":0.000132,"INCLINATION":53.1594,"RA_OF_ASC_NODE":199.8792,"ARG_OF_PERICENTER":55.6982,"MEAN_ANOMALY":196.4923,"EPHEMERIS_TYPE":0,"CLASSIFICATION_TYPE":"U","NORAD_CAT_ID":68257,"ELEMENT_SET_NO":999,"REV_AT_EPOCH":352,"BSTAR":1.9206e-5,"MEAN_MOTION_DOT":2.304e-5,"MEAN_MOTION_DDOT":0},{"OBJECT_NAME":"STARLINK-36890","OBJECT_ID":"2026-054AC","EPOCH":"2026-04-01T04:16:20.985888","MEAN_MOTION":15.80877861,"ECCENTRICITY":0.0001943,"INCLINATION":53.1591,"RA_OF_ASC_NODE":199.7342,"ARG_OF_PERICENTER":23.715,"MEAN_ANOMALY":336.3962,"EPHEMERIS_TYPE":0,"CLASSIFICATION_TYPE":"U","NORAD_CAT_ID":68258,"ELEMENT_SET_NO":999,"REV_AT_EPOCH":233,"BSTAR":0.001072,"MEAN_MOTION_DOT":0.00216307,"MEAN_MOTION_DDOT":0}]
