STARLINK-36356          
1 68242U 26054L   26089.73680966 -.00468872  00000+0 -25692-2 0  9991
2 68242  53.1596 207.1073 0000503  49.8547 310.2520 15.80312000  2104
STARLINK-36345          
1 68243U 26054M   26091.14011152  .00284612  00000+0  17904-2 0  9998
2 68243  53.1607 200.2203 0000490 152.7362 207.3684 15.75348172  2325
STARLINK-36310          
1 68244U 26054N   26090.61955623  .00373987  00000+0  18088-2 0  9998
2 68244  53.1596 202.6565 0000809  58.4255 301.6846 15.80976424  2249
STARLINK-36247          
1 68245U 26054P   26090.62030921  .00336605  00000+0  16379-2 0  9992
2 68245  53.1598 202.6622 0001390  40.7381 319.3746 15.80944479  2246
STARLINK-37043          
1 68246U 26054Q   26091.12455459  .00628018  00000+0  29212-2 0  9998
2 68246  53.1592 200.1169 0000860 152.1555 207.9514 15.81157238  2326
STARLINK-37044          
1 68247U 26054R   26091.18702585  .00324802  00000+0  15906-2 0  9999
2 68247  53.1594 199.7946 0001559  22.1766 337.9323 15.80837723  2337
STARLINK-36997          
1 68248U 26054S   26091.16671296  .00024555  00000+0  16407-3 0  9992
2 68248  53.1600 200.0346 0000865  68.4721 108.3350 15.75212339  3525
STARLINK-37141          
1 68249U 26054T   26091.18604861 -.00802451  00000+0 -49419-2 0  9998
2 68249  53.1593 199.7883 0004417 340.2467  19.8383 15.78577457  2330
STARLINK-37087          
1 68250U 26054U   26091.16671296  .00066392  00000+0  43471-3 0  9991
2 68250  53.1592 199.9330 0000805  82.8542 143.5935 15.75194883  3525
STARLINK-36274          
1 68251U 26054V   26091.16671296  .00148962  00000+0  96226-3 0  9992
2 68251  53.1596 199.9855 0001223  98.8949 101.8078 15.75158518  3569
STARLINK-37085          
1 68252U 26054W   26091.18327307  .00198275  00000+0  98487-3 0  9999
2 68252  53.1591 199.7690 0001441  17.3195 342.7877 15.80880199  2331
STARLINK-37086          
1 68253U 26054X   26091.18252338  .00139531  00000+0  69851-3 0  9994
2 68253  53.1590 199.7642 0000567 100.7044 259.4043 15.80891277  2334
STARLINK-37084          
1 68254U 26054Y   26091.18102423  .00236382  00000+0  11682-2 0  9994
2 68254  53.1589 199.7545 0001776  29.7915 330.3208 15.80881243  2339
STARLINK-37075          
1 68255U 26054Z   26091.18177161  .00211195  00000+0  10476-2 0  9991
2 68255  53.1591 199.7597 0001082  12.4565 347.6484 15.80872111  2331
STARLINK-36333          
1 68256U 26054AA  26091.18027333  .00198595  00000+0  98715-3 0  9998
2 68256  53.1590 199.7499 0000898  27.4802 332.6268 15.80863960  2332
STARLINK-36745          
1 68257U 26054AB  26091.16671296  .00002304  00000+0  19206-4 0  9991
2 68257  53.1594 199.8792 0001320  55.6982 196.4923 15.75228738  3525
STARLINK-36890          
1 68258U 26054AC  26091.17802067  .00216307  00000+0  10720-2 0  9995
2 68258  53.1591 199.7342 0001943  23.7150 336.3962 15.80877861  2336
